STARLINK-3930           
1 52568U 22051AM  22155.50884576  .00006098  00000+0  47767-4 0  9991
2 52568  53.2177 186.2612 0002688  11.3330 348.7750 15.73238350  3873
STARLINK-3927           
1 52569U 22051AN  22155.38220798  .00004393  00000+0  35676-4 0  9990
2 52569  53.2173 186.8920 0002943  13.3340 346.7757 15.73223548  3851
STARLINK-3924           
1 52570U 22051AP  22155.38158001  .00018352  00000+0  13492-3 0  9990
2 52570  53.2179 186.8903 0002622  18.9329 341.1788 15.73194126  3854
STARLINK-3901           
1 52574U 22051AQ  22155.38189782  .00027869  00000+0  20169-3 0  9996
2 52574  53.2171 186.8896 0002870  22.5190 337.5956 15.73271656  3853
STARLINK-3920           
1 52575U 22051AR  22155.50842393  .00010959  00000+0  82349-4 0  9996
2 52575  53.2177 186.2602 0003117  28.5548 331.5643 15.73215302  3872
STARLINK-3932           
1 52576U 22051AS  22155.50873582 -.00000301  00000+0  22884-5 0  9991
2 52576  53.2175 186.2602 0002376  20.7729 339.3388 15.73223271  3946
STARLINK-3836           
1 52577U 22051AT  22155.07060873 -.00189329  00000+0 -28165-2 0  9999
2 52577  53.2218 189.2729 0001098 314.8361  45.2562 15.55166129  3795
STARLINK-3833           
1 52578U 22051AU  22155.52196735 -.00724086  00000+0 -12699-1 0  9996
2 52578  53.2222 187.1042 0011489 155.2074 204.9491 15.52410395  3866
STARLINK-3893           
1 52579U 22051AV  22154.62051332 -.00399267  00000+0 -61585-2 0  9998
2 52579  53.2242 191.4586 0000793  73.7500 286.3600 15.54931081  3727
STARLINK-3919           
1 52580U 22051AW  22154.62056728 -.00313862  00000+0 -47178-2 0  9993
2 52580  53.2214 191.4489 0000907  12.9848 347.1188 15.55333171  3798
STARLINK-3915           
1 52581U 22051AX  22155.50778869  .00007943  00000+0  60909-4 0  9996
2 52581  53.2173 186.2563 0002508  18.6125 341.4986 15.73222959  3949
STARLINK-3886           
1 52582U 22051AY  22155.50810646  .00004863  00000+0  39009-4 0  9992
2 52582  53.2171 186.2561 0002817  14.9797 345.1306 15.73230749  3878
STARLINK-3895           
1 52583U 22051AZ  22155.57121816  .00001540  00000+0  15398-4 0  9998
2 52583  53.2181 185.9408 0002746  20.8414 339.2717 15.73203502  3955
STARLINK-3922           
1 52584U 22051BA  22155.44437473  .00007936  00000+0  60832-4 0  9992
2 52584  53.2175 186.5701 0002815  20.8246 339.2888 15.73232681  3861
STARLINK-3906           
1 52585U 22051BB  22154.61801166 -.00003963  00000+0 -23720-4 0  9998
2 52585  53.2172 190.6536 0002167  26.9836 333.1297 15.73290686  3803
STARLINK-3910           
1 52586U 22051BC  22155.57110291  .00025890  00000+0  18792-3 0  9990
2 52586  53.2173 185.9387 0002293  22.2085 337.9034 15.73248228  3953
STARLINK-3867           
1 52587U 22051BD  22155.38031757  .00022825  00000+0  16614-3 0  9995
2 52587  53.2182 186.8826 0002330  18.9720 341.1387 15.73264902  3856
STARLINK-3917           
1 52588U 22051BE  22155.50726112  .00015783  00000+0  11651-3 0  9997
2 52588  53.2172 186.2545 0002272  11.8091 348.2982 15.73229832  3870
FALCON 9 DEB            
1 52589U 22051BF  22155.50231450  .00203587  27562-4  47751-3 0  9992
2 52589  53.2296 184.0289 0012146   7.3036 352.8169 15.96414624  3901
FALCON 9 DEB            
1 52595U 22051BG  22155.42798584  .00242945  35123-4  51952-3 0  9997
2 52595  53.2259 184.2649 0010054   7.3156 352.8020 15.98077613  3897
FALCON 9 DEB            
1 52596U 22051BH  22155.40920074  .00247242  36647-4  47518-3 0  9997
2 52596  53.2218 184.1260 0012249 350.2588   9.8205 15.99905428  3897
FALCON 9 DEB            
1 52597U 22051BJ  22155.47080235  .00243640  35806-4  47702-3 0  9990
2 52597  53.2183 183.7924 0010011 343.6655  16.4052 15.99636044  3908
STARLINK-4019           
1 52598U 22052A   22155.11959500 -.00392186  00000+0 -53439-2 0  9991
2 52598  53.2153 339.7187 0002167  37.0564 323.0599 15.58219118  4005
STARLINK-4024           
1 52599U 22052B   22155.51901450 -.00101502  00000+0 -75997-3 0  9991
2 52599  53.2154 337.2832 0000873 119.0900 241.0207 15.72181272  3632
STARLINK-4026           
1 52600U 22052C   22155.51852394 -.00128157  00000+0 -94568-3 0  9996
2 52600  53.2147 337.2816 0001366 107.7209 252.3960 15.72624892  3634
STARLINK-4027           
1 52601U 22052D   22155.51865568 -.00078957  00000+0 -57288-3 0  9994
2 52601  53.2136 337.2809 0000770  33.3091 326.7977 15.72814321  3638
STARLINK-4012           
1 52602U 22052E   22155.07426860 -.00404761  00000+0 -32180-2 0  9993
2 52602  53.2156 339.4852 0004537  96.1402 264.0135 15.71693259  4007
STARLINK-4016           
1 52603U 22052F   22155.51808918 -.00117508  00000+0 -86429-3 0  9997
2 52603  53.2151 337.2773 0001117  79.1644 280.9502 15.72661868  3636
STARLINK-4013           
1 52604U 22052G   22155.51884305 -.00083779  00000+0 -61805-3 0  9995
2 52604  53.2162 337.2833 0000929 102.8400 257.2724 15.72449217  3635
STARLINK-4000           
1 52605U 22052H   22154.79633255  .00376379  00000+0  40400-2 0  9997
2 52605  53.2159 341.2629 0010180 243.8962 116.1006 15.61998738  3517
STARLINK-3928           
1 52606U 22052J   22155.51833273 -.00070800  00000+0 -51359-3 0  9999
2 52606  53.2153 337.2796 0000881 115.7586 244.3525 15.72775186  3633
STARLINK-3947           
1 52607U 22052K   22154.86090545  .00365756  00000+0  40323-2 0  9997
2 52607  53.2157 340.9672 0011033 241.2983 118.6924 15.61332351  3524
STARLINK-3979           
1 52608U 22052L   22155.51766055 -.00006947  00000+0 -45244-4 0  9992
2 52608  53.2151 337.2751 0002625 235.5990 124.4782 15.73127149  3636
STARLINK-3997           
1 52609U 22052M   22155.00940531 -.00457308  00000+0 -36397-2 0  9998
2 52609  53.2145 339.7880 0005663 116.4894 243.6707 15.71803946  3191
STARLINK-3998           
1 52610U 22052N   22154.92514832  .00832381  00000+0  86279-2 0  9991
2 52610  53.2139 340.6482 0014078 294.7061  65.2488 15.61792163  3170
STARLINK-3980           
1 52611U 22052P   22154.79776636 -.00378605  00000+0 -50604-2 0  9998
2 52611  53.2162 341.2910 0001096  89.8933 270.2207 15.58687817  3528
STARLINK-4002           
1 52612U 22052Q   22155.13622647 -.00089575  00000+0 -64897-3 0  9995
2 52612  53.2148 339.1585 0000809  17.7411 342.3637 15.72899391  3570
STARLINK-3921           
1 52613U 22052R   22155.51681705  .00000812  00000+0  10197-4 0  9998
2 52613  53.2132 337.2671 0001350  97.4799 262.6374 15.73223461  3634
STARLINK-3982           
1 52614U 22052S   22155.51692647  .00005485  00000+0  43463-4 0  9999
2 52614  53.2148 337.2695 0001185 103.9052 256.2100 15.73202695  3631
STARLINK-4011           
1 52615U 22052T   22155.11690020  .00055411  00000+0  66234-3 0  9993
2 52615  53.2148 339.7360 0003287 266.9410  93.1228 15.60485911  3191
STARLINK-4015           
1 52616U 22052U   22155.51671217 -.00001106  00000+0 -34637-5 0  9993
2 52616  53.2160 337.2688 0000945  96.1922 263.9206 15.73219621  3630
STARLINK-3996           
1 52617U 22052V   22155.51618731  .00000610  00000+0  87577-5 0  9994
2 52617  53.2143 337.2630 0001199  99.2070 260.9086 15.73213709  3633
STARLINK-3983           
1 52618U 22052W   22155.51660957  .00001828  00000+0  17430-4 0  9994
2 52618  53.2153 337.2665 0001171  97.0383 263.0771 15.73209450  3639
STARLINK-3741           
1 52619U 22052X   22155.51608698  .00003297  00000+0  27878-4 0  9998
2 52619  53.2163 337.2619 0000675  85.0153 275.0944 15.73214416  3633
STARLINK-3975           
1 52620U 22052Y   22155.50340370 -.00462481  00000+0 -67033-2 0  9990
2 52620  53.2142 337.8894 0002944  77.0528 283.0814 15.56807541  3623
STARLINK-3984           
1 52621U 22052Z   22155.51576287  .00000722  00000+0  95578-5 0  9992
2 52621  53.2145 337.2593 0001384 100.9017 259.2159 15.73216130  3638
STARLINK-4008           
1 52622U 22052AA  22155.24566251 -.00202705  00000+0 -26073-2 0  9991
2 52622  53.2151 339.1886 0001266 321.0292  39.0630 15.59096841  3213
STARLINK-3986           
1 52623U 22052AB  22155.51555833  .00003211  00000+0  27255-4 0  9990
2 52623  53.2143 337.2570 0000947  99.1706 260.9421 15.73224044  3635
STARLINK-4009           
1 52624U 22052AC  22155.51597129  .00000699  00000+0  93875-5 0  9994
2 52624  53.2143 337.2614 0001244 100.8971 259.2190 15.73230383  3266
STARLINK-3988           
1 52625U 22052AD  22155.51536310 -.00044847  00000+0 -31568-3 0  9994
2 52625  53.2149 337.2559 0000561  40.0521 320.0540 15.73285751  3263
STARLINK-3990           
1 52626U 22052AE  22155.51588341  .00009915  00000+0  74890-4 0  9997
2 52626  53.2157 337.2611 0000516 354.1140   5.9874 15.73224967  3630
STARLINK-3992           
1 52627U 22052AF  22155.51513748  .00003017  00000+0  25887-4 0  9996
2 52627  53.2154 337.2548 0000935 103.4283 256.6841 15.73216546  3638
STARLINK-4001           
1 52628U 22052AG  22154.47575613 -.00226932  00000+0 -29606-2 0  9996
2 52628  53.2124 342.9227 0000460 172.4714 187.6307 15.58811882  3098
STARLINK-4022           
1 52629U 22052AH  22155.51502716  .00014908  00000+0  11030-3 0  9996
2 52629  53.2151 337.2543 0001246  96.4975 263.6187 15.73231057  3632
STARLINK-3989           
1 52630U 22052AJ  22154.81605338  .00246142  00000+0  16360-2 0  9991
2 52630  53.2148 340.7124 0002644 286.2797  73.7933 15.74193637  3156
STARLINK-3794           
1 52631U 22052AK  22155.51482781  .00010256  00000+0  77298-4 0  9999
2 52631  53.2146 337.2521 0000576 102.3171 257.7914 15.73229646  3278
STARLINK-3995           
1 52632U 22052AL  22153.92691805  .00633888  00000+0  40352-2 0  9993
2 52632  53.2148 345.1147 0003930 320.0620  40.0110 15.74078429  3024
STARLINK-3994           
1 52633U 22052AM  22155.51451137  .00002412  00000+0  21587-4 0  9997
2 52633  53.2150 337.2502 0001139  97.2304 262.8846 15.73211003  3639
STARLINK-3974           
1 52634U 22052AN  22155.51492808  .00003399  00000+0  28605-4 0  9991
2 52634  53.2157 337.2546 0001367 101.4075 258.7099 15.73220799  3637
